NORAD_CAT_ID,OBJECT_NAME,OBJECT_TYPE,EPOCH,MEAN_MOTION,ECCENTRICITY,INCLINATION,RA_OF_ASC_NODE,ARG_OF_PERICENTER,MEAN_ANOMALY,BSTAR,MEAN_MOTION_DOT,MEAN_MOTION_DDOT,TLE_LINE0,TLE_LINE1,TLE_LINE2,SEMIMAJOR_AXIS,PERIOD,APOGEE,PERIGEE,DECAYED
54764.0,STARLINK-5458,PAYLOAD,2024-07-16 10:51:10,15.08839901,0.0001305,53.2155,223.112,87.8061,272.3081,0.00011171,1.49e-05,0.0,0 STARLINK-5458,1 54764U 22175G   24198.45220483  .00001490  00000-0  11171-3 0  9993,2 54764  53.2155 223.1120 0001305  87.8061 272.3081 15.08839901 86998,6917.881,95.438,540.648,538.843,0.0
54764.0,STARLINK-5458,PAYLOAD,2024-07-17 07:31:11,15.08844221,0.0001296,53.2154,219.2456,87.6947,272.4193,4.1825e-05,3.78e-06,0.0,0 STARLINK-5458,1 54764U 22175G   24199.31332321  .00000378  00000-0  41825-4 0  9998,2 54764  53.2154 219.2456 0001296  87.6947 272.4193 15.08844221 89286,6917.867,95.437,540.629,538.836,0.0
54764.0,STARLINK-5458,PAYLOAD,2024-07-18 01:00:25,15.08840378,0.000133,53.2154,215.9743,89.0266,271.0879,6.2301e-05,7.04e-06,0.0,0 STARLINK-5458,1 54764U 22175G   24200.04196534  .00000704  00000-0  62301-4 0  9990,2 54764  53.2154 215.9743 0001330  89.0266 271.0879 15.08840378 87235,6917.879,95.438,540.664,538.824,0.0
54764.0,STARLINK-5458,PAYLOAD,2024-07-18 07:21:58,15.0884051,0.0001325,53.2154,214.7847,89.8104,270.304,5.9519e-05,6.59e-06,0.0,0 STARLINK-5458,1 54764U 22175G   24200.30692534  .00000659  00000-0  59519-4 0  9996,2 54764  53.2154 214.7847 0001325  89.8104 270.3040 15.08840510 89434,6917.879,95.438,540.66,538.827,0.0
54764.0,STARLINK-5458,PAYLOAD,2024-07-18 18:29:40,15.08840961,0.0001319,53.2154,212.7033,89.1763,270.938,2.3476e-05,8.6e-07,0.0,0 STARLINK-5458,1 54764U 22175G   24200.77060594  .00000086  00000-0  23476-4 0  9999,2 54764  53.2154 212.7033 0001319  89.1763 270.9380 15.08840961 89507,6917.877,95.437,540.655,538.83,0.0
54764.0,STARLINK-5458,PAYLOAD,2024-07-19 05:37:22,15.08839022,0.0001378,53.2155,210.6218,91.2652,268.8498,4.2549e-05,3.89e-06,0.0,0 STARLINK-5458,1 54764U 22175G   24201.23428701  .00000389  00000-0  42549-4 0  9997,2 54764  53.2155 210.6218 0001378  91.2652 268.8498 15.08839022 87416,6917.883,95.438,540.702,538.795,0.0
54764.0,STARLINK-5458,PAYLOAD,2024-07-19 07:12:45,15.08839132,0.0001379,53.2155,210.3244,91.1723,268.9427,4.1904e-05,3.79e-06,0.0,0 STARLINK-5458,1 54764U 22175G   24201.30052695  .00000379  00000-0  41904-4 0  9993,2 54764  53.2155 210.3244 0001379  91.1723 268.9427 15.08839132 89586,6917.883,95.438,540.702,538.794,0.0
54764.0,STARLINK-5458,PAYLOAD,2024-07-20 07:03:32,15.08839576,0.0001357,53.2154,205.8643,88.8872,271.2275,7.5752e-05,9.18e-06,0.0,0 STARLINK-5458,1 54764U 22175G   24202.29412584  .00000918  00000-0  75752-4 0  9996,2 54764  53.2154 205.8643 0001357  88.8872 271.2275 15.08839576 87578,6917.882,95.438,540.685,538.808,0.0
54764.0,STARLINK-5458,PAYLOAD,2024-07-21 06:54:19,15.08837815,0.0001394,53.2158,201.4034,89.5499,270.5653,6.0467e-05,6.74e-06,0.0,0 STARLINK-5458,1 54764U 22175G   24203.28772902  .00000674  00000-0  60467-4 0  9995,2 54764  53.2158 201.4034 0001394  89.5499 270.5653 15.08837815 89884,6917.887,95.438,540.716,538.788,0.0
54764.0,STARLINK-5458,PAYLOAD,2024-07-22 05:09:43,15.08839215,0.0001373,53.2158,197.2402,88.5058,271.6091,3.5774e-05,2.81e-06,0.0,0 STARLINK-5458,1 54764U 22175G   24204.21509011  .00000281  00000-0  35774-4 0  9995,2 54764  53.2158 197.2402 0001373  88.5058 271.6091 15.08839215 87862,6917.883,95.438,540.698,538.798,0.0
54764.0,STARLINK-5458,PAYLOAD,2024-07-22 06:45:06,15.08840475,0.0001393,53.216,196.943,88.933,271.1822,4.5854e-05,4.42e-06,0.0,0 STARLINK-5458,1 54764U 22175G   24204.28132901  .00000442  00000-0  45854-4 0  9991,2 54764  53.2160 196.9430 0001393  88.9330 271.1822 15.08840475 90031,6917.879,95.438,540.708,538.78,0.0
54764.0,STARLINK-5458,PAYLOAD,2024-07-22 22:38:58,15.0883986,0.000138,53.2161,193.9698,91.6869,268.4281,6.384e-05,7.28e-06,0.0,0 STARLINK-5458,1 54764U 22175G   24204.94372932  .00000728  00000-0  63840-4 0  9996,2 54764  53.2161 193.9698 0001380  91.6869 268.4281 15.08839860 90134,6917.881,95.438,540.7,538.791,0.0
54764.0,STARLINK-5458,PAYLOAD,2024-07-23 03:25:07,15.08838885,0.0001408,53.2163,193.0777,92.5643,267.551,5.777e-05,6.32e-06,0.0,0 STARLINK-5458,1 54764U 22175G   24205.14245067  .00000632  00000-0  57770-4 0  9996,2 54764  53.2163 193.0777 0001408  92.5643 267.5510 15.08838885 90160,6917.884,95.438,540.723,538.775,0.0
54764.0,STARLINK-5458,PAYLOAD,2024-07-23 16:08:13,15.08836913,0.000135,53.2157,190.6982,88.4792,271.6354,4.6091e-05,4.46e-06,0.0,0 STARLINK-5458,1 54764U 22175G   24205.67237320  .00000446  00000-0  46091-4 0  9994,2 54764  53.2157 190.6982 0001350  88.4792 271.6354 15.08836913 88089,6917.89,95.438,540.689,538.821,0.0
54764.0,STARLINK-5458,PAYLOAD,2024-07-23 22:29:45,15.08834737,0.0001449,53.2163,189.5099,89.2866,270.8293,1.2664e-05,-8.6e-07,0.0,0 STARLINK-5458,1 54764U 22175G   24205.93733679 -.00000086  00000-0  12664-4 0  9991,2 54764  53.2163 189.5099 0001449  89.2866 270.8293 15.08834737 90282,6917.896,95.438,540.764,538.759,0.0
54764.0,STARLINK-5458,PAYLOAD,2024-07-24 08:02:04,15.08835076,0.0001465,53.216,187.725,86.1204,273.9956,1.368e-05,-7e-07,0.0,0 STARLINK-5458,1 54764U 22175G   24206.33477783 -.00000070  00000-0  13680-4 0  9999,2 54764  53.2160 187.7250 0001465  86.1204 273.9956 15.08835076 90342,6917.895,95.438,540.774,538.747,0.0
54764.0,STARLINK-5458,PAYLOAD,2024-07-25 04:42:05,15.0884347,0.0001496,53.2159,183.8591,85.3444,274.7719,7.5597e-05,9.15e-06,0.0,0 STARLINK-5458,1 54764U 22175G   24207.19589132  .00000915  00000-0  75597-4 0  9998,2 54764  53.2159 183.8591 0001496  85.3444 274.7719 15.08843470 88313,6917.87,95.437,540.77,538.7,0.0
54764.0,STARLINK-5458,PAYLOAD,2024-07-25 06:17:27,15.08845845,0.0001505,53.216,183.5618,85.3827,274.7336,9.5261e-05,1.229e-05,0.0,0 STARLINK-5458,1 54764U 22175G   24207.26212919  .00001229  00000-0  95261-4 0  9991,2 54764  53.2160 183.5618 0001505  85.3827 274.7336 15.08845845 90482,6917.863,95.437,540.769,538.686,0.0
54764.0,STARLINK-5458,PAYLOAD,2024-07-25 22:11:19,15.08834406,0.0001543,53.216,180.5874,85.5428,274.574,6.6292e-05,7.67e-06,0.0,0 STARLINK-5458,1 54764U 22175G   24207.92453638  .00000767  00000-0  66292-4 0  9997,2 54764  53.2160 180.5874 0001543  85.5428 274.5740 15.08834406 90583,6917.897,95.438,540.83,538.695,0.0
54764.0,STARLINK-5458,PAYLOAD,2024-07-26 04:32:52,15.08840484,0.000149,53.2158,179.3975,91.763,268.3533,6.9934e-05,8.25e-06,0.0,0 STARLINK-5458,1 54764U 22175G   24208.18949264  .00000825  00000-0  69934-4 0  9992,2 54764  53.2158 179.3975 0001490  91.7630 268.3533 15.08840484 88461,6917.879,95.438,540.775,538.713,0.0
54764.0,STARLINK-5458,PAYLOAD,2024-07-26 22:02:06,15.08849116,0.0001407,53.2145,176.1266,107.0536,253.061,-5.0431e-05,-1.091e-05,0.0,0 STARLINK-5458,1 54764U 22175G   24208.91813031 -.00001091  00000-0 -50431-4 0  9995,2 54764  53.2145 176.1266 0001407 107.0536 253.0610 15.08849116 90730,6917.853,95.437,540.691,538.744,0.0
54764.0,STARLINK-5458,PAYLOAD,2024-07-27 04:23:38,15.08848919,0.0001393,53.2156,174.9374,97.1053,263.0097,-1.3302e-05,-5e-06,0.0,0 STARLINK-5458,1 54764U 22175G   24209.18308794 -.00000500  00000-0 -13302-4 0  9990,2 54764  53.2156 174.9374 0001393  97.1053 263.0097 15.08848919 90779,6917.853,95.437,540.682,538.754,0.0
54764.0,STARLINK-5458,PAYLOAD,2024-07-27 21:52:54,15.08831057,0.0001389,53.2147,171.6665,97.0521,263.063,-3.4357e-05,-8.35e-06,0.0,0 STARLINK-5458,1 54764U 22175G   24209.91174007 -.00000835  00000-0 -34357-4 0  9993,2 54764  53.2147 171.6665 0001389  97.0521 263.0630 15.08831057 90880,6917.908,95.438,540.734,538.812,0.0
54764.0,STARLINK-5458,PAYLOAD,2024-07-28 04:14:27,15.08829142,0.0001172,53.2152,170.4803,84.7349,275.3777,-1.7788e-05,-5.71e-06,0.0,0 STARLINK-5458,1 54764U 22175G   24210.17670219 -.00000571  00000-0 -17788-4 0  9995,2 54764  53.2152 170.4803 0001172  84.7349 275.3777 15.08829142 88762,6917.914,95.438,540.589,538.968,0.0
54764.0,STARLINK-5458,PAYLOAD,2024-07-28 21:43:41,15.08835979,0.000128,53.2157,167.2091,85.8261,274.2877,-9.1589e-06,-4.34e-06,0.0,0 STARLINK-5458,1 54764U 22175G   24210.90534067 -.00000434  00000-0 -91589-5 0  9996,2 54764  53.2157 167.2091 0001280  85.8261 274.2877 15.08835979 88871,6917.893,95.438,540.643,538.872,0.0
54764.0,STARLINK-5458,PAYLOAD,2024-07-29 04:05:16,15.08660034,0.0002155,53.216,166.0186,82.098,278.0257,0.0024423,0.00038604,0.0,0 STARLINK-5458,1 54764U 22175G   24211.17033386  .00038604  00000-0  24423-2 0  9992,2 54764  53.2160 166.0186 0002155  82.0980 278.0257 15.08660034 88913,6918.431,95.449,541.786,538.805,0.0
54764.0,STARLINK-5458,PAYLOAD,2024-07-29 12:02:10,15.08825241,0.0001388,53.2161,164.531,80.6194,279.4955,1.6241e-06,-2.62e-06,0.0,0 STARLINK-5458,1 54764U 22175G   24211.50150748 -.00000262  00000-0  16241-5 0  9993,2 54764  53.2161 164.5310 0001388  80.6194 279.4955 15.08825241 88962,6917.926,95.438,540.751,538.83,0.0
54764.0,STARLINK-5458,PAYLOAD,2024-07-29 13:37:33,15.08825425,0.0001338,53.2159,164.2337,89.2504,270.8642,1.5663e-06,-2.63e-06,0.0,0 STARLINK-5458,1 54764U 22175G   24211.56774753 -.00000263  00000-0  15663-5 0  9995,2 54764  53.2159 164.2337 0001338  89.2504 270.8642 15.08825425 91135,6917.925,95.438,540.716,538.864,0.0
54764.0,STARLINK-5458,PAYLOAD,2024-07-30 03:56:01,15.08835595,0.0001182,53.2157,161.5572,85.2575,274.8552,0.00010545,1.391e-05,0.0,0 STARLINK-5458,1 54764U 22175G   24212.16390118  .00001391  00000-0  10545-3 0  9995,2 54764  53.2157 161.5572 0001182  85.2575 274.8552 15.08835595 89067,6917.894,95.438,540.577,538.941,0.0
54764.0,STARLINK-5458,PAYLOAD,2024-07-30 13:28:19,15.08840283,0.000125,53.2159,159.7727,85.3481,274.7654,0.00012709,1.735e-05,0.0,0 STARLINK-5458,1 54764U 22175G   24212.56133844  .00001735  00000-0  12709-3 0  9996,2 54764  53.2159 159.7727 0001250  85.3481 274.7654 15.08840283 91282,6917.88,95.438,540.609,538.88,0.0
